{
  "type": "FeatureCollection",
  "features": [
    {
      "type": "Feature",
      "properties": {
        "norad_id": 25590,
        "name": "COSMOS 2361",
        "group": "musson",
        "lat": -24.816370348854612,
        "lon": -29.815475783536076,
        "alt_km": 1001.4899780552178,
        "timestamp": "2025-12-27T02:10:16.459160+00:00",
        "meta_object_name": "COSMOS 2361",
        "meta_object_id": "1998-076A",
        "meta_epoch": "2025-12-26T16:38:35.001024",
        "meta_mean_motion": 13.73219035,
        "meta_eccentricity": 0.0030386,
        "meta_inclination": 82.9346,
        "meta_ra_of_asc_node": 333.7656,
        "meta_arg_of_pericenter": 225.2527,
        "meta_mean_anomaly": 307.9731,
        "meta_ephemeris_type": 0,
        "meta_classification_type": "U",
        "meta_norad_cat_id": 25590,
        "meta_element_set_no": 999,
        "meta_rev_at_epoch": 35302,
        "meta_bstar": 6.369e-05,
        "meta_mean_motion_dot": 7.4e-07,
        "meta_mean_motion_ddot": 0,
        "tle_line1": "1 25590U 98076A   25360.69346066  .00000074  00000+0  63690-4 0  9995",
        "tle_line2": "2 25590  82.9346 333.7656 0030386 225.2527 307.9731 13.73219035353020"
      },
      "geometry": {
        "type": "Point",
        "coordinates": [
          -29.815475783536076,
          -24.816370348854612
        ]
      }
    },
    {
      "type": "Feature",
      "properties": {
        "norad_id": 26818,
        "name": "COSMOS 2378",
        "group": "musson",
        "lat": 81.49044291980005,
        "lon": 113.00909374269685,
        "alt_km": 968.8673688974795,
        "timestamp": "2025-12-27T02:10:16.459181+00:00",
        "meta_object_name": "COSMOS 2378",
        "meta_object_id": "2001-023A",
        "meta_epoch": "2025-12-26T10:31:21.747360",
        "meta_mean_motion": 13.7414309,
        "meta_eccentricity": 0.003327,
        "meta_inclination": 82.9272,
        "meta_ra_of_asc_node": 349.5666,
        "meta_arg_of_pericenter": 166.5607,
        "meta_mean_anomaly": 304.8436,
        "meta_ephemeris_type": 0,
        "meta_classification_type": "U",
        "meta_norad_cat_id": 26818,
        "meta_element_set_no": 999,
        "meta_rev_at_epoch": 23111,
        "meta_bstar": 4.6609e-05,
        "meta_mean_motion_dot": 5.9e-07,
        "meta_mean_motion_ddot": 0,
        "tle_line1": "1 26818U 01023A   25360.43844615  .00000059  00000+0  46609-4 0  9994",
        "tle_line2": "2 26818  82.9272 349.5666 0033270 166.5607 304.8436 13.74143090231110"
      },
      "geometry": {
        "type": "Point",
        "coordinates": [
          113.00909374269685,
          81.49044291980005
        ]
      }
    },
    {
      "type": "Feature",
      "properties": {
        "norad_id": 27436,
        "name": "COSMOS 2389",
        "group": "musson",
        "lat": -6.078367431762604,
        "lon": -64.39298031371155,
        "alt_km": 954.0733391613194,
        "timestamp": "2025-12-27T02:10:16.459195+00:00",
        "meta_object_name": "COSMOS 2389",
        "meta_object_id": "2002-026A",
        "meta_epoch": "2025-12-26T19:29:34.232928",
        "meta_mean_motion": 13.75156148,
        "meta_eccentricity": 0.0046987,
        "meta_inclination": 82.9514,
        "meta_ra_of_asc_node": 296.5678,
        "meta_arg_of_pericenter": 22.3021,
        "meta_mean_anomaly": 35.1386,
        "meta_ephemeris_type": 0,
        "meta_classification_type": "U",
        "meta_norad_cat_id": 27436,
        "meta_element_set_no": 999,
        "meta_rev_at_epoch": 18342,
        "meta_bstar": 6.4169e-05,
        "meta_mean_motion_dot": 7.7e-07,
        "meta_mean_motion_ddot": 0,
        "tle_line1": "1 27436U 02026A   25360.81220177  .00000077  00000+0  64169-4 0  9999",
        "tle_line2": "2 27436  82.9514 296.5678 0046987  22.3021  35.1386 13.75156148183425"
      },
      "geometry": {
        "type": "Point",
        "coordinates": [
          -64.39298031371155,
          -6.078367431762604
        ]
      }
    },
    {
      "type": "Feature",
      "properties": {
        "norad_id": 27818,
        "name": "COSMOS 2398",
        "group": "musson",
        "lat": 15.345722855841549,
        "lon": 80.17707385959271,
        "alt_km": 992.0084984437854,
        "timestamp": "2025-12-27T02:10:16.459206+00:00",
        "meta_object_name": "COSMOS 2398",
        "meta_object_id": "2003-023A",
        "meta_epoch": "2025-12-26T18:38:24.592128",
        "meta_mean_motion": 13.72387321,
        "meta_eccentricity": 0.0032674,
        "meta_inclination": 82.9481,
        "meta_ra_of_asc_node": 262.3549,
        "meta_arg_of_pericenter": 74.4232,
        "meta_mean_anomaly": 340.1674,
        "meta_ephemeris_type": 0,
        "meta_classification_type": "U",
        "meta_norad_cat_id": 27818,
        "meta_element_set_no": 999,
        "meta_rev_at_epoch": 13009,
        "meta_bstar": 6.5155e-05,
        "meta_mean_motion_dot": 7.5e-07,
        "meta_mean_motion_ddot": 0,
        "tle_line1": "1 27818U 03023A   25360.77667352  .00000075  00000+0  65155-4 0  9990",
        "tle_line2": "2 27818  82.9481 262.3549 0032674  74.4232 340.1674 13.72387321130090"
      },
      "geometry": {
        "type": "Point",
        "coordinates": [
          80.17707385959271,
          15.345722855841549
        ]
      }
    },
    {
      "type": "Feature",
      "properties": {
        "norad_id": 28380,
        "name": "COSMOS 2407",
        "group": "musson",
        "lat": -22.310881133237128,
        "lon": 25.17392483239571,
        "alt_km": 1011.2411258138945,
        "timestamp": "2025-12-27T02:10:16.459218+00:00",
        "meta_object_name": "COSMOS 2407",
        "meta_object_id": "2004-028A",
        "meta_epoch": "2025-12-26T16:49:30.591264",
        "meta_mean_motion": 13.76315218,
        "meta_eccentricity": 0.0039629,
        "meta_inclination": 82.9593,
        "meta_ra_of_asc_node": 202.5555,
        "meta_arg_of_pericenter": 16.6279,
        "meta_mean_anomaly": 57.423,
        "meta_ephemeris_type": 0,
        "meta_classification_type": "U",
        "meta_norad_cat_id": 28380,
        "meta_element_set_no": 999,
        "meta_rev_at_epoch": 7615,
        "meta_bstar": 4.49e-05,
        "meta_mean_motion_dot": 5.9e-07,
        "meta_mean_motion_ddot": 0,
        "tle_line1": "1 28380U 04028A   25360.70104851  .00000059  00000+0  44900-4 0  9991",
        "tle_line2": "2 28380  82.9593 202.5555 0039629  16.6279  57.4230 13.76315218 76150"
      },
      "geometry": {
        "type": "Point",
        "coordinates": [
          25.17392483239571,
          -22.310881133237128
        ]
      }
    },
    {
      "type": "Feature",
      "properties": {
        "norad_id": 28521,
        "name": "COSMOS 2414",
        "group": "musson",
        "lat": -16.571159463437002,
        "lon": 171.6973237366356,
        "alt_km": 954.2169471181169,
        "timestamp": "2025-12-27T02:10:16.459229+00:00",
        "meta_object_name": "COSMOS 2414",
        "meta_object_id": "2005-002A",
        "meta_epoch": "2025-12-26T17:36:02.335968",
        "meta_mean_motion": 13.87904705,
        "meta_eccentricity": 0.0041439,
        "meta_inclination": 82.9489,
        "meta_ra_of_asc_node": 174.078,
        "meta_arg_of_pericenter": 100.9333,
        "meta_mean_anomaly": 259.6496,
        "meta_ephemeris_type": 0,
        "meta_classification_type": "U",
        "meta_norad_cat_id": 28521,
        "meta_element_set_no": 999,
        "meta_rev_at_epoch": 5989,
        "meta_bstar": 5.1567e-05,
        "meta_mean_motion_dot": 7.8e-07,
        "meta_mean_motion_ddot": 0,
        "tle_line1": "1 28521U 05002A   25360.73336037  .00000078  00000+0  51567-4 0  9995",
        "tle_line2": "2 28521  82.9489 174.0780 0041439 100.9333 259.6496 13.87904705 59893"
      },
      "geometry": {
        "type": "Point",
        "coordinates": [
          171.6973237366356,
          -16.571159463437002
        ]
      }
    },
    {
      "type": "Feature",
      "properties": {
        "norad_id": 32052,
        "name": "COSMOS 2429",
        "group": "musson",
        "lat": 0.10147286278030065,
        "lon": 152.71683428181964,
        "alt_km": 1012.2919233452476,
        "timestamp": "2025-12-27T02:10:16.459239+00:00",
        "meta_object_name": "COSMOS 2429",
        "meta_object_id": "2007-038A",
        "meta_epoch": "2025-12-26T11:19:46.861824",
        "meta_mean_motion": 13.75150735,
        "meta_eccentricity": 0.0038417,
        "meta_inclination": 82.9809,
        "meta_ra_of_asc_node": 333.185,
        "meta_arg_of_pericenter": 359.9977,
        "meta_mean_anomaly": 0.1172,
        "meta_ephemeris_type": 0,
        "meta_classification_type": "U",
        "meta_norad_cat_id": 32052,
        "meta_element_set_no": 999,
        "meta_rev_at_epoch": 91791,
        "meta_bstar": 5.6621e-05,
        "meta_mean_motion_dot": 7e-07,
        "meta_mean_motion_ddot": 0,
        "tle_line1": "1 32052U 07038A   25360.47207016  .00000070  00000+0  56621-4 0  9993",
        "tle_line2": "2 32052  82.9809 333.1850 0038417 359.9977   0.1172 13.75150735917910"
      },
      "geometry": {
        "type": "Point",
        "coordinates": [
          152.71683428181964,
          0.10147286278030065
        ]
      }
    },
    {
      "type": "Feature",
      "properties": {
        "norad_id": 35635,
        "name": "COSMOS 2454",
        "group": "musson",
        "lat": 40.77386209319185,
        "lon": -28.35446181341299,
        "alt_km": 929.0734537974085,
        "timestamp": "2025-12-27T02:10:16.459250+00:00",
        "meta_object_name": "COSMOS 2454",
        "meta_object_id": "2009-039A",
        "meta_epoch": "2025-12-26T20:51:38.644992",
        "meta_mean_motion": 13.89930373,
        "meta_eccentricity": 0.0019907,
        "meta_inclination": 82.956,
        "meta_ra_of_asc_node": 157.9341,
        "meta_arg_of_pericenter": 35.5854,
        "meta_mean_anomaly": 76.4086,
        "meta_ephemeris_type": 0,
        "meta_classification_type": "U",
        "meta_norad_cat_id": 35635,
        "meta_element_set_no": 999,
        "meta_rev_at_epoch": 83346,
        "meta_bstar": 5.8574e-05,
        "meta_mean_motion_dot": 8.8e-07,
        "meta_mean_motion_ddot": 0,
        "tle_line1": "1 35635U 09039A   25360.86919728  .00000088  00000+0  58574-4 0  9997",
        "tle_line2": "2 35635  82.9560 157.9341 0019907  35.5854  76.4086 13.89930373833461"
      },
      "geometry": {
        "type": "Point",
        "coordinates": [
          -28.35446181341299,
          40.77386209319185
        ]
      }
    },
    {
      "type": "Feature",
      "properties": {
        "norad_id": 36519,
        "name": "COSMOS 2463",
        "group": "musson",
        "lat": -43.64960244103057,
        "lon": 9.396856303998788,
        "alt_km": 991.0943624464226,
        "timestamp": "2025-12-27T02:10:16.459260+00:00",
        "meta_object_name": "COSMOS 2463",
        "meta_object_id": "2010-017A",
        "meta_epoch": "2025-12-26T14:43:53.597856",
        "meta_mean_motion": 13.71650343,
        "meta_eccentricity": 0.0034842,
        "meta_inclination": 82.9603,
        "meta_ra_of_asc_node": 16.5163,
        "meta_arg_of_pericenter": 248.1363,
        "meta_mean_anomaly": 235.1487,
        "meta_ephemeris_type": 0,
        "meta_classification_type": "U",
        "meta_norad_cat_id": 36519,
        "meta_element_set_no": 999,
        "meta_rev_at_epoch": 78427,
        "meta_bstar": 3.8217e-05,
        "meta_mean_motion_dot": 4.9e-07,
        "meta_mean_motion_ddot": 0,
        "tle_line1": "1 36519U 10017A   25360.61381479  .00000049  00000+0  38217-4 0  9995",
        "tle_line2": "2 36519  82.9603  16.5163 0034842 248.1363 235.1487 13.71650343784275"
      },
      "geometry": {
        "type": "Point",
        "coordinates": [
          9.396856303998788,
          -43.64960244103057
        ]
      }
    }
  ]
}